{
    "links": {
        "self": "http://www.neowsapp.com/rest/v1/neo/3574812?api_key=iIulBulltgU6a56xZRHN4H3l9WmuAYTsLGpBGhQ2"
    },
    "id": "3574812",
    "neo_reference_id": "3574812",
    "name": "(2011 PX)",
    "designation": "2011 PX",
    "nasa_jpl_url": "http://ssd.jpl.nasa.gov/sbdb.cgi?sstr=3574812",
    "absolute_magnitude_h": 21.8,
    "estimated_diameter": {
        "kilometers": {
            "estimated_diameter_min": 0.1160259082,
            "estimated_diameter_max": 0.2594418179
        },
        "meters": {
            "estimated_diameter_min": 116.0259082094,
            "estimated_diameter_max": 259.4418179074
        },
        "miles": {
            "estimated_diameter_min": 0.0720951346,
            "estimated_diameter_max": 0.1612096218
        },
        "feet": {
            "estimated_diameter_min": 380.6624406898,
            "estimated_diameter_max": 851.1870938635
        }
    },
    "is_potentially_hazardous_asteroid": false,
    "close_approach_data": [
        {
            "close_approach_date": "1988-07-20",
            "close_approach_date_full": "1988-Jul-20 00:48",
            "epoch_date_close_approach": 585362880000,
            "relative_velocity": {
                "kilometers_per_second": "4.3051551699",
                "kilometers_per_hour": "15498.5586116405",
                "miles_per_hour": "9630.2015995496"
            },
            "miss_distance": {
                "astronomical": "0.265581172",
                "lunar": "103.311075908",
                "kilometers": "39730377.64330364",
                "miles": "24687311.901684632"
            },
            "orbiting_body": "Earth"
        },
        {
            "close_approach_date": "2011-07-21",
            "close_approach_date_full": "2011-Jul-21 02:59",
            "epoch_date_close_approach": 1311217140000,
            "relative_velocity": {
                "kilometers_per_second": "4.2532849106",
                "kilometers_per_hour": "15311.8256783392",
                "miles_per_hour": "9514.1730166325"
            },
            "miss_distance": {
                "astronomical": "0.2614797603",
                "lunar": "101.7156267567",
                "kilometers": "39116815.188990561",
                "miles": "24306061.8713733018"
            },
            "orbiting_body": "Earth"
        },
        {
            "close_approach_date": "2034-07-21",
            "close_approach_date_full": "2034-Jul-21 03:41",
            "epoch_date_close_approach": 2037066060000,
            "relative_velocity": {
                "kilometers_per_second": "4.3858765469",
                "kilometers_per_hour": "15789.1555688465",
                "miles_per_hour": "9810.7672477646"
            },
            "miss_distance": {
                "astronomical": "0.263560339",
                "lunar": "102.524971871",
                "kilometers": "39428065.33087793",
                "miles": "24499463.741378234"
            },
            "orbiting_body": "Earth"
        },
        {
            "close_approach_date": "2057-07-22",
            "close_approach_date_full": "2057-Jul-22 03:50",
            "epoch_date_close_approach": 2762999400000,
            "relative_velocity": {
                "kilometers_per_second": "4.8481023065",
                "kilometers_per_hour": "17453.1683034999",
                "miles_per_hour": "10844.7200494719"
            },
            "miss_distance": {
                "astronomical": "0.2893826017",
                "lunar": "112.5698320613",
                "kilometers": "43291020.829378379",
                "miles": "26899792.9834004702"
            },
            "orbiting_body": "Earth"
        }
    ],
    "orbital_data": {
        "orbit_id": "13",
        "orbit_determination_date": "2017-04-06 08:53:02",
        "first_observation_date": "2011-08-03",
        "last_observation_date": "2011-10-02",
        "data_arc_in_days": 60,
        "observations_used": 40,
        "orbit_uncertainty": "6",
        "minimum_orbit_intersection": ".228655",
        "jupiter_tisserand_invariant": "3.516",
        "epoch_osculation": "2459000.5",
        "eccentricity": ".4449354826385931",
        "semi_major_axis": "2.209312741980275",
        "inclination": "5.908922651938317",
        "ascending_node_longitude": "246.351365680789",
        "orbital_period": "1199.455728221165",
        "perihelion_distance": "1.226311110827688",
        "perihelion_argument": "53.62545987003637",
        "aphelion_distance": "3.192314373132862",
        "perihelion_time": "2459357.779639563256",
        "mean_anomaly": "252.7674717652805",
        "mean_motion": ".3001361296876649",
        "equinox": "J2000",
        "orbit_class": {
            "orbit_class_type": "AMO",
            "orbit_class_description": "Near-Earth asteroid orbits similar to that of 1221 Amor",
            "orbit_class_range": "1.017 AU < q (perihelion) < 1.3 AU"
        }
    },
    "is_sentry_object": false
}